CCSDS_OMM_VERS = 2.0
CREATION_DATE  = 
ORIGINATOR     = 

OBJECT_NAME    = 2025-234B
OBJECT_ID      = 2025-234B
CENTER_NAME    = EARTH
REF_FRAME      = TEME
TIME_SYSTEM    = UTC
MEAN_ELEMENT_THEORY = SGP/SGP4

EPOCH          = 2025-11-08T18:44:58.314336
MEAN_MOTION    = 15.21267145
ECCENTRICITY   = .0014321
INCLINATION    = 97.5032
RA_OF_ASC_NODE = 18.3740
ARG_OF_PERICENTER = 204.3343
MEAN_ANOMALY   = 155.7218

EPHEMERIS_TYPE = 0
CLASSIFICATION_TYPE = U
NORAD_CAT_ID   = 66054
ELEMENT_SET_NO = 999
REV_AT_EPOCH   = 314
BSTAR          = .49841E-3
MEAN_MOTION_DOT = .11105E-3
MEAN_MOTION_DDOT = 0

CCSDS_OMM_VERS = 2.0
CREATION_DATE  = 
ORIGINATOR     = 

OBJECT_NAME    = 2025-234C
OBJECT_ID      = 2025-234C
CENTER_NAME    = EARTH
REF_FRAME      = TEME
TIME_SYSTEM    = UTC
MEAN_ELEMENT_THEORY = SGP/SGP4

EPOCH          = 2025-11-08T20:17:17.134080
MEAN_MOTION    = 15.21416444
ECCENTRICITY   = .001499
INCLINATION    = 97.4555
RA_OF_ASC_NODE = 18.3187
ARG_OF_PERICENTER = 206.2199
MEAN_ANOMALY   = 153.8279

EPHEMERIS_TYPE = 0
CLASSIFICATION_TYPE = U
NORAD_CAT_ID   = 66055
ELEMENT_SET_NO = 999
REV_AT_EPOCH   = 315
BSTAR          = .41476E-3
MEAN_MOTION_DOT = .9271E-4
MEAN_MOTION_DDOT = 0

CCSDS_OMM_VERS = 2.0
CREATION_DATE  = 
ORIGINATOR     = 

OBJECT_NAME    = 2025-234D
OBJECT_ID      = 2025-234D
CENTER_NAME    = EARTH
REF_FRAME      = TEME
TIME_SYSTEM    = UTC
MEAN_ELEMENT_THEORY = SGP/SGP4

EPOCH          = 2025-11-08T20:13:13.898208
MEAN_MOTION    = 15.21968415
ECCENTRICITY   = .0014941
INCLINATION    = 97.4533
RA_OF_ASC_NODE = 18.3168
ARG_OF_PERICENTER = 205.6660
MEAN_ANOMALY   = 154.3836

EPHEMERIS_TYPE = 0
CLASSIFICATION_TYPE = U
NORAD_CAT_ID   = 66056
ELEMENT_SET_NO = 999
REV_AT_EPOCH   = 314
BSTAR          = .12798E-2
MEAN_MOTION_DOT = .29302E-3
MEAN_MOTION_DDOT = 0

CCSDS_OMM_VERS = 2.0
CREATION_DATE  = 
ORIGINATOR     = 

OBJECT_NAME    = 2025-234E
OBJECT_ID      = 2025-234E
CENTER_NAME    = EARTH
REF_FRAME      = TEME
TIME_SYSTEM    = UTC
MEAN_ELEMENT_THEORY = SGP/SGP4

EPOCH          = 2025-11-08T10:38:38.451840
MEAN_MOTION    = 15.34620500
ECCENTRICITY   = .0013171
INCLINATION    = 97.4823
RA_OF_ASC_NODE = 18.1746
ARG_OF_PERICENTER = 229.4558
MEAN_ANOMALY   = 130.5539

EPHEMERIS_TYPE = 0
CLASSIFICATION_TYPE = U
NORAD_CAT_ID   = 66057
ELEMENT_SET_NO = 999
REV_AT_EPOCH   = 310
BSTAR          = .17068E-1
MEAN_MOTION_DOT = .613665E-2
MEAN_MOTION_DDOT = 0

CCSDS_OMM_VERS = 2.0
CREATION_DATE  = 
ORIGINATOR     = 

OBJECT_NAME    = STARLINK-35552
OBJECT_ID      = 2025-235A
CENTER_NAME    = EARTH
REF_FRAME      = TEME
TIME_SYSTEM    = UTC
MEAN_ELEMENT_THEORY = SGP/SGP4

EPOCH          = 2025-11-08T20:00:01.999008
MEAN_MOTION    = 15.72358435
ECCENTRICITY   = .0002097
INCLINATION    = 53.1562
RA_OF_ASC_NODE = 88.9127
ARG_OF_PERICENTER = 21.0610
MEAN_ANOMALY   = 49.0790

EPHEMERIS_TYPE = 0
CLASSIFICATION_TYPE = U
NORAD_CAT_ID   = 66058
ELEMENT_SET_NO = 999
REV_AT_EPOCH   = 442
BSTAR          = .14834E-2
MEAN_MOTION_DOT = .20525E-2
MEAN_MOTION_DDOT = 0

CCSDS_OMM_VERS = 2.0
CREATION_DATE  = 
ORIGINATOR     = 

OBJECT_NAME    = STARLINK-35560
OBJECT_ID      = 2025-235B
CENTER_NAME    = EARTH
REF_FRAME      = TEME
TIME_SYSTEM    = UTC
MEAN_ELEMENT_THEORY = SGP/SGP4

EPOCH          = 2025-11-08T20:00:01.999008
MEAN_MOTION    = 15.51583343
ECCENTRICITY   = .0001308
INCLINATION    = 53.1608
RA_OF_ASC_NODE = 89.2463
ARG_OF_PERICENTER = 56.8133
MEAN_ANOMALY   = 209.5801

EPHEMERIS_TYPE = 0
CLASSIFICATION_TYPE = U
NORAD_CAT_ID   = 66059
ELEMENT_SET_NO = 999
REV_AT_EPOCH   = 442
BSTAR          = -.34282E-1
MEAN_MOTION_DOT = -.183095E-1
MEAN_MOTION_DDOT = 0

CCSDS_OMM_VERS = 2.0
CREATION_DATE  = 
ORIGINATOR     = 

OBJECT_NAME    = STARLINK-35558
OBJECT_ID      = 2025-235C
CENTER_NAME    = EARTH
REF_FRAME      = TEME
TIME_SYSTEM    = UTC
MEAN_ELEMENT_THEORY = SGP/SGP4

EPOCH          = 2025-11-08T20:00:01.999008
MEAN_MOTION    = 15.51585242
ECCENTRICITY   = .000126
INCLINATION    = 53.1611
RA_OF_ASC_NODE = 89.2408
ARG_OF_PERICENTER = 57.6923
MEAN_ANOMALY   = 210.6155

EPHEMERIS_TYPE = 0
CLASSIFICATION_TYPE = U
NORAD_CAT_ID   = 66060
ELEMENT_SET_NO = 999
REV_AT_EPOCH   = 442
BSTAR          = -.34271E-1
MEAN_MOTION_DOT = -.1830506E-1
MEAN_MOTION_DDOT = 0

CCSDS_OMM_VERS = 2.0
CREATION_DATE  = 
ORIGINATOR     = 

OBJECT_NAME    = STARLINK-35566
OBJECT_ID      = 2025-235D
CENTER_NAME    = EARTH
REF_FRAME      = TEME
TIME_SYSTEM    = UTC
MEAN_ELEMENT_THEORY = SGP/SGP4

EPOCH          = 2025-11-08T20:00:01.999008
MEAN_MOTION    = 15.51582683
ECCENTRICITY   = .0001286
INCLINATION    = 53.1610
RA_OF_ASC_NODE = 89.2382
ARG_OF_PERICENTER = 61.6586
MEAN_ANOMALY   = 208.5691

EPHEMERIS_TYPE = 0
CLASSIFICATION_TYPE = U
NORAD_CAT_ID   = 66061
ELEMENT_SET_NO = 999
REV_AT_EPOCH   = 442
BSTAR          = -.34223E-1
MEAN_MOTION_DOT = -.1828095E-1
MEAN_MOTION_DDOT = 0

CCSDS_OMM_VERS = 2.0
CREATION_DATE  = 
ORIGINATOR     = 

OBJECT_NAME    = STARLINK-35421
OBJECT_ID      = 2025-235E
CENTER_NAME    = EARTH
REF_FRAME      = TEME
TIME_SYSTEM    = UTC
MEAN_ELEMENT_THEORY = SGP/SGP4

EPOCH          = 2025-11-08T20:00:01.999008
MEAN_MOTION    = 15.51586746
ECCENTRICITY   = .0001281
INCLINATION    = 53.1609
RA_OF_ASC_NODE = 89.2334
ARG_OF_PERICENTER = 55.3883
MEAN_ANOMALY   = 216.7546

EPHEMERIS_TYPE = 0
CLASSIFICATION_TYPE = U
NORAD_CAT_ID   = 66062
ELEMENT_SET_NO = 999
REV_AT_EPOCH   = 442
BSTAR          = -.34439E-1
MEAN_MOTION_DOT = -.1838546E-1
MEAN_MOTION_DDOT = 0

CCSDS_OMM_VERS = 2.0
CREATION_DATE  = 
ORIGINATOR     = 

OBJECT_NAME    = STARLINK-35562
OBJECT_ID      = 2025-235F
CENTER_NAME    = EARTH
REF_FRAME      = TEME
TIME_SYSTEM    = UTC
MEAN_ELEMENT_THEORY = SGP/SGP4

EPOCH          = 2025-11-08T20:00:01.999008
MEAN_MOTION    = 15.51595928
ECCENTRICITY   = .0001316
INCLINATION    = 53.1609
RA_OF_ASC_NODE = 89.2296
ARG_OF_PERICENTER = 69.1272
MEAN_ANOMALY   = 204.9319

EPHEMERIS_TYPE = 0
CLASSIFICATION_TYPE = U
NORAD_CAT_ID   = 66063
ELEMENT_SET_NO = 999
REV_AT_EPOCH   = 442
BSTAR          = -.34952E-1
MEAN_MOTION_DOT = -.1863283E-1
MEAN_MOTION_DDOT = 0

CCSDS_OMM_VERS = 2.0
CREATION_DATE  = 
ORIGINATOR     = 

OBJECT_NAME    = STARLINK-35542
OBJECT_ID      = 2025-235G
CENTER_NAME    = EARTH
REF_FRAME      = TEME
TIME_SYSTEM    = UTC
MEAN_ELEMENT_THEORY = SGP/SGP4

EPOCH          = 2025-11-08T20:00:01.999008
MEAN_MOTION    = 15.51586411
ECCENTRICITY   = .0001255
INCLINATION    = 53.1608
RA_OF_ASC_NODE = 89.2250
ARG_OF_PERICENTER = 60.5987
MEAN_ANOMALY   = 215.3767

EPHEMERIS_TYPE = 0
CLASSIFICATION_TYPE = U
NORAD_CAT_ID   = 66064
ELEMENT_SET_NO = 999
REV_AT_EPOCH   = 442
BSTAR          = -.34306E-1
MEAN_MOTION_DOT = -.183221E-1
MEAN_MOTION_DDOT = 0

CCSDS_OMM_VERS = 2.0
CREATION_DATE  = 
ORIGINATOR     = 

OBJECT_NAME    = STARLINK-35375
OBJECT_ID      = 2025-235H
CENTER_NAME    = EARTH
REF_FRAME      = TEME
TIME_SYSTEM    = UTC
MEAN_ELEMENT_THEORY = SGP/SGP4

EPOCH          = 2025-11-08T20:00:01.999008
MEAN_MOTION    = 15.51593562
ECCENTRICITY   = .0001298
INCLINATION    = 53.1607
RA_OF_ASC_NODE = 89.2214
ARG_OF_PERICENTER = 65.6552
MEAN_ANOMALY   = 212.2370

EPHEMERIS_TYPE = 0
CLASSIFICATION_TYPE = U
NORAD_CAT_ID   = 66065
ELEMENT_SET_NO = 999
REV_AT_EPOCH   = 442
BSTAR          = -.34803E-1
MEAN_MOTION_DOT = -.1856113E-1
MEAN_MOTION_DDOT = 0

