2025-234B               
1 66054U 25234B   25312.78123049  .00011105  00000+0  49841-3 0  9990
2 66054  97.5032  18.3740 0014321 204.3343 155.7218 15.21267145  3143
2025-234C               
1 66055U 25234C   25312.84533720  .00009271  00000+0  41476-3 0  9996
2 66055  97.4555  18.3187 0014990 206.2199 153.8279 15.21416444  3155
2025-234D               
1 66056U 25234D   25312.84252197  .00029302  00000+0  12798-2 0  9994
2 66056  97.4533  18.3168 0014941 205.6660 154.3836 15.21968415  3147
2025-234E               
1 66057U 25234E   25312.44350060  .00613665  00000+0  17068-1 0  9994
2 66057  97.4823  18.1746 0013171 229.4558 130.5539 15.34620500  3100
STARLINK-35552          
1 66058U 25235A   25312.83335647  .00205250  00000+0  14834-2 0  9999
2 66058  53.1562  88.9127 0002097  21.0610  49.0790 15.72358435  4424
STARLINK-35560          
1 66059U 25235B   25312.83335647 -.01830950  00000+0 -34282-1 0  9992
2 66059  53.1608  89.2463 0001308  56.8133 209.5801 15.51583343  4424
STARLINK-35558          
1 66060U 25235C   25312.83335647 -.01830506  00000+0 -34271-1 0  9999
2 66060  53.1611  89.2408 0001260  57.6923 210.6155 15.51585242  4427
STARLINK-35566          
1 66061U 25235D   25312.83335647 -.01828095  00000+0 -34223-1 0  9997
2 66061  53.1610  89.2382 0001286  61.6586 208.5691 15.51582683  4423
STARLINK-35421          
1 66062U 25235E   25312.83335647 -.01838546  00000+0 -34439-1 0  9999
2 66062  53.1609  89.2334 0001281  55.3883 216.7546 15.51586746  4428
STARLINK-35562          
1 66063U 25235F   25312.83335647 -.01863283  00000+0 -34952-1 0  9996
2 66063  53.1609  89.2296 0001316  69.1272 204.9319 15.51595928  4429
STARLINK-35542          
1 66064U 25235G   25312.83335647 -.01832210  00000+0 -34306-1 0  9996
2 66064  53.1608  89.2250 0001255  60.5987 215.3767 15.51586411  4429
STARLINK-35375          
1 66065U 25235H   25312.83335647 -.01856113  00000+0 -34803-1 0  9997
2 66065  53.1607  89.2214 0001298  65.6552 212.2370 15.51593562  4421
